[{"OBJECT_NAME":"STARLINK-5406","OBJECT_ID":"2022-177AS","EPOCH":"2026-03-09T22:00:01.999584","MEAN_MOTION":15.06794089,"ECCENTRICITY":0.00020868,"INCLINATION":43.0007,"RA_OF_ASC_NODE":118.9128,"ARG_OF_PERICENTER":247.3845,"MEAN_ANOMALY":35.0053,"EPHEMERIS_TYPE":0,"CLASSIFICATION_TYPE":"U","NORAD_CAT_ID":54860,"ELEMENT_SET_NO":999,"REV_AT_EPOCH":572,"BSTAR":0.0039409589,"MEAN_MOTION_DOT":0.00059974,"MEAN_MOTION_DDOT":0},{"OBJECT_NAME":"FENGYUN 1C DEB","OBJECT_ID":"1999-025CSF","EPOCH":"2026-03-06T14:46:48.189792","MEAN_MOTION":14.83626867,"ECCENTRICITY":0.01812709,"INCLINATION":98.4497,"RA_OF_ASC_NODE":202.5264,"ARG_OF_PERICENTER":124.6228,"MEAN_ANOMALY":237.2229,"EPHEMERIS_TYPE":0,"CLASSIFICATION_TYPE":"U","NORAD_CAT_ID":32137,"ELEMENT_SET_NO":999,"REV_AT_EPOCH":67973,"BSTAR":0.0017939615,"MEAN_MOTION_DOT":0.00019795,"MEAN_MOTION_DDOT":0}]
